start=new Date('2022-07-14T00:00:00.000Z').valueOf();
sats=[{"CENTER_NAME":"EARTH","RCS_SIZE":"LARGE","INCLINATION":"53.2133","MEAN_MOTION":"15.08804617","MEAN_MOTION_DDOT":"0.0000000000000","RA_OF_ASC_NODE":"221.1487","OBJECT_TYPE":"PAYLOAD","BSTAR":"0.00267420000000","SEMIMAJOR_AXIS":"6917.989","EPOCH":"2022-07-13T22:00:00.999936","TLE_LINE2":"2 51789  53.2133 221.1487 0001445  58.1159 267.9110 15.08804617  1307","MEAN_ELEMENT_THEORY":"SGP4","REV_AT_EPOCH":"130","OBJECT_ID":"2022-017X","EPHEMERIS_TYPE":"0","FILE":"3513188","MEAN_MOTION_DOT":"0.00042487","NORAD_CAT_ID":"51789","COUNTRY_CODE":"US","ECCENTRICITY":"0.00014450","PERIAPSIS":"538.854","MEAN_ANOMALY":"267.9110","APOAPSIS":"540.853","REF_FRAME":"TEME","OBJECT_NAME":"STARLINK-3639","LAUNCH_DATE":"2022-02-25","ELEMENT_SET_NO":"999","SITE":"AFWTR","ARG_OF_PERICENTER":"58.1159","TIME_SYSTEM":"UTC","CLASSIFICATION_TYPE":"U","DECAY_DATE":null,"TLE_LINE1":"1 51789U 22017X   22194.91667824  .00042487  00000-0  26742-2 0  9991","PERIOD":"95.440","GP_ID":"208067184"},{"REF_FRAME":"TEME","APOAPSIS":"541.017","GP_ID":"208067433","TLE_LINE1":"1 51790U 22017Y   22194.91667824  .00041822  00000-0  26328-2 0  9995","DECAY_DATE":null,"PERIOD":"95.440","CLASSIFICATION_TYPE":"U","ARG_OF_PERICENTER":"47.6383","TIME_SYSTEM":"UTC","SITE":"AFWTR","OBJECT_NAME":"STARLINK-3631","ELEMENT_SET_NO":"999","LAUNCH_DATE":"2022-02-25","RA_OF_ASC_NODE":"221.1535","MEAN_MOTION":"15.08805052","MEAN_MOTION_DDOT":"0.0000000000000","INCLINATION":"53.2162","CENTER_NAME":"EARTH","RCS_SIZE":"LARGE","MEAN_ANOMALY":"18.4129","ECCENTRICITY":"0.00016840","COUNTRY_CODE":"US","PERIAPSIS":"538.687","FILE":"3513188","MEAN_MOTION_DOT":"0.00041822","NORAD_CAT_ID":"51790","MEAN_ELEMENT_THEORY":"SGP4","TLE_LINE2":"2 51790  53.2162 221.1535 0001684  47.6383  18.4129 15.08805052  1305","REV_AT_EPOCH":"130","OBJECT_ID":"2022-017Y","EPHEMERIS_TYPE":"0","BSTAR":"0.00263280000000","SEMIMAJOR_AXIS":"6917.987","EPOCH":"2022-07-13T22:00:00.999936","OBJECT_TYPE":"PAYLOAD"},{"RA_OF_ASC_NODE":"221.1419","INCLINATION":"53.2140","MEAN_MOTION":"15.08812942","MEAN_MOTION_DDOT":"0.0000000000000","CENTER_NAME":"EARTH","RCS_SIZE":"LARGE","MEAN_ANOMALY":"324.9246","COUNTRY_CODE":"US","ECCENTRICITY":"0.00016030","PERIAPSIS":"538.719","MEAN_ELEMENT_THEORY":"SGP4","TLE_LINE2":"2 51791  53.2140 221.1419 0001603  41.0753 324.9246 15.08812942  1304","REV_AT_EPOCH":"130","OBJECT_ID":"2022-017Z","EPHEMERIS_TYPE":"0","MEAN_MOTION_DOT":"0.00043135","FILE":"3513188","NORAD_CAT_ID":"51791","OBJECT_TYPE":"PAYLOAD","BSTAR":"0.00271380000000","EPOCH":"2022-07-13T22:00:00.999936","SEMIMAJOR_AXIS":"6917.963","REF_FRAME":"TEME","APOAPSIS":"540.937","GP_ID":"208068684","CLASSIFICATION_TYPE":"U","TLE_LINE1":"1 51791U 22017Z   22194.91667824  .00043135  00000-0  27138-2 0  9995","PERIOD":"95.439","DECAY_DATE":null,"SITE":"AFWTR","TIME_SYSTEM":"UTC","ARG_OF_PERICENTER":"41.0753","OBJECT_NAME":"STARLINK-3602","ELEMENT_SET_NO":"999","LAUNCH_DATE":"2022-02-25"},{"GP_ID":"208068429","PERIOD":"95.439","TLE_LINE1":"1 51792U 22017AA  22194.91667824  .00039953  00000-0  25162-2 0  9994","DECAY_DATE":null,"CLASSIFICATION_TYPE":"U","TIME_SYSTEM":"UTC","ARG_OF_PERICENTER":"46.2878","SITE":"AFWTR","OBJECT_NAME":"STARLINK-3626","LAUNCH_DATE":"2022-02-25","ELEMENT_SET_NO":"999","REF_FRAME":"TEME","APOAPSIS":"541.061","MEAN_ANOMALY":"59.7563","ECCENTRICITY":"0.00017710","COUNTRY_CODE":"US","PERIAPSIS":"538.610","FILE":"3513188","NORAD_CAT_ID":"51792","MEAN_MOTION_DOT":"0.00039953","MEAN_ELEMENT_THEORY":"SGP4","TLE_LINE2":"2 51792  53.2156 221.1561 0001771  46.2878  59.7563 15.08810551  1300","REV_AT_EPOCH":"130","EPHEMERIS_TYPE":"0","OBJECT_ID":"2022-017AA","BSTAR":"0.00251620000000","SEMIMAJOR_AXIS":"6917.970","EPOCH":"2022-07-13T22:00:00.999936","OBJECT_TYPE":"PAYLOAD","RA_OF_ASC_NODE":"221.1561","MEAN_MOTION":"15.08810551","MEAN_MOTION_DDOT":"0.0000000000000","INCLINATION":"53.2156","RCS_SIZE":"LARGE","CENTER_NAME":"EARTH"},{"APOAPSIS":"541.212","REF_FRAME":"TEME","LAUNCH_DATE":"2022-02-25","ELEMENT_SET_NO":"999","OBJECT_NAME":"STARLINK-3633","SITE":"AFWTR","TIME_SYSTEM":"UTC","ARG_OF_PERICENTER":"44.8676","CLASSIFICATION_TYPE":"U","PERIOD":"95.440","TLE_LINE1":"1 51793U 22017AB  22194.91667824  .00042794  00000-0  26936-2 0  9992","DECAY_DATE":null,"GP_ID":"208067683","RCS_SIZE":"LARGE","CENTER_NAME":"EARTH","INCLINATION":"53.2153","MEAN_MOTION_DDOT":"0.0000000000000","MEAN_MOTION":"15.08799652","RA_OF_ASC_NODE":"221.1442","OBJECT_TYPE":"PAYLOAD","EPOCH":"2022-07-13T22:00:00.999936","SEMIMAJOR_AXIS":"6918.004","BSTAR":"0.00269360000000","EPHEMERIS_TYPE":"0","REV_AT_EPOCH":"130","OBJECT_ID":"2022-017AB","TLE_LINE2":"2 51793  53.2153 221.1442 0001941  44.8676 341.1843 15.08799652  1302","MEAN_ELEMENT_THEORY":"SGP4","NORAD_CAT_ID":"51793","FILE":"3513188","MEAN_MOTION_DOT":"0.00042794","PERIAPSIS":"538.526","ECCENTRICITY":"0.00019410","COUNTRY_CODE":"US","MEAN_ANOMALY":"341.1843"},{"PERIAPSIS":"538.606","COUNTRY_CODE":"US","ECCENTRICITY":"0.00017340","MEAN_ANOMALY":"84.2961","EPOCH":"2022-07-13T22:00:00.999936","SEMIMAJOR_AXIS":"6917.941","BSTAR":"0.00240790000000","OBJECT_TYPE":"PAYLOAD","MEAN_MOTION_DOT":"0.00038221","FILE":"3512980","NORAD_CAT_ID":"51794","EPHEMERIS_TYPE":"0","REV_AT_EPOCH":"2241","OBJECT_ID":"2022-017AC","MEAN_ELEMENT_THEORY":"SGP4","TLE_LINE2":"2 51794  53.2168 221.1557 0001734  61.5343  84.2961 15.08820212 22411","MEAN_MOTION_DDOT":"0.0000000000000","MEAN_MOTION":"15.08820212","INCLINATION":"53.2168","RA_OF_ASC_NODE":"221.1557","RCS_SIZE":"LARGE","CENTER_NAME":"EARTH","TLE_LINE1":"1 51794U 22017AC  22194.91667824  .00038221  00000-0  24079-2 0  9999","PERIOD":"95.439","DECAY_DATE":null,"CLASSIFICATION_TYPE":"U","GP_ID":"208039365","LAUNCH_DATE":"2022-02-25","ELEMENT_SET_NO":"999","OBJECT_NAME":"STARLINK-3573","TIME_SYSTEM":"UTC","ARG_OF_PERICENTER":"61.5343","SITE":"AFWTR","REF_FRAME":"TEME","APOAPSIS":"541.005"},{"APOAPSIS":"540.963","REF_FRAME":"TEME","TIME_SYSTEM":"UTC","ARG_OF_PERICENTER":"56.1029","SITE":"AFWTR","OBJECT_NAME":"STARLINK-3586","LAUNCH_DATE":"2022-02-25","ELEMENT_SET_NO":"999","GP_ID":"208068186","PERIOD":"95.439","TLE_LINE1":"1 51795U 22017AD  22194.91667824  .00005292  00000-0  35057-3 0  9991","DECAY_DATE":null,"CLASSIFICATION_TYPE":"U","CENTER_NAME":"EARTH","RCS_SIZE":"LARGE","RA_OF_ASC_NODE":"221.1549","MEAN_MOTION":"15.08812698","MEAN_MOTION_DDOT":"0.0000000000000","INCLINATION":"53.2166","FILE":"3513188","NORAD_CAT_ID":"51795","MEAN_MOTION_DOT":"0.00005292","TLE_LINE2":"2 51795  53.2166 221.1549 0001639  56.1029  69.9713 15.08812698  1305","MEAN_ELEMENT_THEORY":"SGP4","OBJECT_ID":"2022-017AD","REV_AT_EPOCH":"130","EPHEMERIS_TYPE":"0","BSTAR":"0.00035057000000","SEMIMAJOR_AXIS":"6917.964","EPOCH":"2022-07-13T22:00:00.999936","OBJECT_TYPE":"PAYLOAD","MEAN_ANOMALY":"69.9713","ECCENTRICITY":"0.00016390","COUNTRY_CODE":"US","PERIAPSIS":"538.695"},{"ECCENTRICITY":"0.00018530","COUNTRY_CODE":"US","PERIAPSIS":"538.581","MEAN_ANOMALY":"165.5501","OBJECT_TYPE":"PAYLOAD","BSTAR":"0.00243870000000","EPOCH":"2022-07-13T22:00:00.999936","SEMIMAJOR_AXIS":"6917.998","TLE_LINE2":"2 51796  53.2136 221.1477 0001853  40.4963 165.5501 15.08801425  1308","MEAN_ELEMENT_THEORY":"SGP4","REV_AT_EPOCH":"130","EPHEMERIS_TYPE":"0","OBJECT_ID":"2022-017AE","NORAD_CAT_ID":"51796","FILE":"3513188","MEAN_MOTION_DOT":"0.00038697","INCLINATION":"53.2136","MEAN_MOTION":"15.08801425","MEAN_MOTION_DDOT":"0.0000000000000","RA_OF_ASC_NODE":"221.1477","RCS_SIZE":"LARGE","CENTER_NAME":"EARTH","CLASSIFICATION_TYPE":"U","TLE_LINE1":"1 51796U 22017AE  22194.91667824  .00038697  00000-0  24387-2 0  9990","PERIOD":"95.440","DECAY_DATE":null,"GP_ID":"208068928","OBJECT_NAME":"STARLINK-3630","ELEMENT_SET_NO":"999","LAUNCH_DATE":"2022-02-25","SITE":"AFWTR","ARG_OF_PERICENTER":"40.4963","TIME_SYSTEM":"UTC","REF_FRAME":"TEME","APOAPSIS":"541.145"},{"CENTER_NAME":"EARTH","RCS_SIZE":"LARGE","INCLINATION":"53.2172","MEAN_MOTION_DDOT":"0.0000000000000","MEAN_MOTION":"15.08810808","RA_OF_ASC_NODE":"221.1567","OBJECT_TYPE":"PAYLOAD","SEMIMAJOR_AXIS":"6917.970","EPOCH":"2022-07-13T22:00:00.999936","BSTAR":"0.00124020000000","OBJECT_ID":"2022-017AF","REV_AT_EPOCH":"130","EPHEMERIS_TYPE":"0","MEAN_ELEMENT_THEORY":"SGP4","TLE_LINE2":"2 51797  53.2172 221.1567 0001906  49.2069  36.8310 15.08810808  1305","MEAN_MOTION_DOT":"0.00019489","FILE":"3513188","NORAD_CAT_ID":"51797","PERIAPSIS":"538.516","ECCENTRICITY":"0.00019060","COUNTRY_CODE":"US","MEAN_ANOMALY":"36.8310","APOAPSIS":"541.153","REF_FRAME":"TEME","LAUNCH_DATE":"2022-02-25","ELEMENT_SET_NO":"999","OBJECT_NAME":"STARLINK-3627","SITE":"AFWTR","ARG_OF_PERICENTER":"49.2069","TIME_SYSTEM":"UTC","CLASSIFICATION_TYPE":"U","TLE_LINE1":"1 51797U 22017AF  22194.91667824  .00019489  00000-0  12402-2 0  9994","DECAY_DATE":null,"PERIOD":"95.439","GP_ID":"208067185"},{"OBJECT_NAME":"STARLINK-3634","ELEMENT_SET_NO":"999","LAUNCH_DATE":"2022-02-25","SITE":"AFWTR","ARG_OF_PERICENTER":"47.3078","TIME_SYSTEM":"UTC","CLASSIFICATION_TYPE":"U","TLE_LINE1":"1 51798U 22017AG  22194.91667824  .00039582  00000-0  24916-2 0  9994","DECAY_DATE":null,"PERIOD":"95.438","GP_ID":"208067434","APOAPSIS":"540.998","REF_FRAME":"TEME","OBJECT_TYPE":"PAYLOAD","BSTAR":"0.00249160000000","EPOCH":"2022-07-13T22:00:00.999936","SEMIMAJOR_AXIS":"6917.901","MEAN_ELEMENT_THEORY":"SGP4","TLE_LINE2":"2 51798  53.2128 221.1442 0001781  47.3078 178.6218 15.08833161  1308","OBJECT_ID":"2022-017AG","REV_AT_EPOCH":"130","EPHEMERIS_TYPE":"0","FILE":"3513188","MEAN_MOTION_DOT":"0.00039582","NORAD_CAT_ID":"51798","COUNTRY_CODE":"US","ECCENTRICITY":"0.00017810","PERIAPSIS":"538.534","MEAN_ANOMALY":"178.6218","RCS_SIZE":"LARGE","CENTER_NAME":"EARTH","INCLINATION":"53.2128","MEAN_MOTION":"15.08833161","MEAN_MOTION_DDOT":"0.0000000000000","RA_OF_ASC_NODE":"221.1442"}];
